[{"OBJECT_NAME":"STARLINK-5349","OBJECT_ID":"2023-065K","EPOCH":"2026-03-09T22:00:01.999584","MEAN_MOTION":15.08665297,"ECCENTRICITY":0.00013239,"INCLINATION":43.0004,"RA_OF_ASC_NODE":209.1554,"ARG_OF_PERICENTER":302.7171,"MEAN_ANOMALY":220.7836,"EPHEMERIS_TYPE":0,"CLASSIFICATION_TYPE":"U","NORAD_CAT_ID":56512,"ELEMENT_SET_NO":999,"REV_AT_EPOCH":567,"BSTAR":0.0042513805,"MEAN_MOTION_DOT":0.00068183,"MEAN_MOTION_DDOT":0},{"OBJECT_NAME":"DIAMANT R\/B","OBJECT_ID":"1965-096B","EPOCH":"2026-03-09T06:37:58.450944","MEAN_MOTION":13.87748546,"ECCENTRICITY":0.05835308,"INCLINATION":34.2444,"RA_OF_ASC_NODE":152.0838,"ARG_OF_PERICENTER":53.3256,"MEAN_ANOMALY":311.9607,"EPHEMERIS_TYPE":0,"CLASSIFICATION_TYPE":"U","NORAD_CAT_ID":1805,"ELEMENT_SET_NO":999,"REV_AT_EPOCH":99082,"BSTAR":0.00024432239,"MEAN_MOTION_DOT":1.159e-5,"MEAN_MOTION_DDOT":0}]
